NORAD_CAT_ID,OBJECT_NAME,OBJECT_TYPE,EPOCH,MEAN_MOTION,ECCENTRICITY,INCLINATION,RA_OF_ASC_NODE,ARG_OF_PERICENTER,MEAN_ANOMALY,BSTAR,MEAN_MOTION_DOT,MEAN_MOTION_DDOT,TLE_LINE0,TLE_LINE1,TLE_LINE2,SEMIMAJOR_AXIS,PERIOD,APOGEE,PERIGEE,DECAYED
53842.0,STARLINK-4754,PAYLOAD,2023-05-14 23:57:51,15.08838853,0.000147,53.2174,236.5567,125.4848,234.6281,-2.4212e-05,-6.73e-06,0.0,0 STARLINK-4754,1 53842U 22114AA  23134.99851280 -.00000673  00000-0 -24212-4 0  9990,2 53842  53.2174 236.5567 0001470 125.4848 234.6281 15.08838853 36985,6917.884,95.438,540.766,538.732,0.0
53842.0,STARLINK-4754,PAYLOAD,2023-05-15 12:40:56,15.08844254,0.0001067,53.2154,234.1781,89.5624,270.5491,5.0068e-05,5.09e-06,0.0,0 STARLINK-4754,1 53842U 22114AA  23135.52842994  .00000509  00000-0  50068-4 0  9996,2 53842  53.2154 234.1781 0001067  89.5624 270.5491 15.08844254 37603,6917.867,95.437,540.471,538.994,0.0
53842.0,STARLINK-4754,PAYLOAD,2023-05-15 14:16:19,15.08844467,0.0001042,53.2158,233.8799,90.7949,269.3163,9.4249e-05,1.213e-05,0.0,0 STARLINK-4754,1 53842U 22114AA  23135.59466799  .00001213  00000-0  94249-4 0  9990,2 53842  53.2158 233.8799 0001042  90.7949 269.3163 15.08844467 37078,6917.867,95.437,540.453,539.011,0.0
53842.0,STARLINK-4754,PAYLOAD,2023-05-16 06:10:11,15.08833342,0.0001182,53.2153,230.9079,88.9394,271.1734,0.00010055,1.312e-05,0.0,0 STARLINK-4754,1 53842U 22114AA  23136.25707611  .00001312  00000-0  10055-3 0  9997,2 53842  53.2153 230.9079 0001182  88.9394 271.1734 15.08833342 37176,6917.901,95.438,540.583,538.948,0.0
53842.0,STARLINK-4754,PAYLOAD,2023-05-16 12:31:43,15.08838352,0.0001084,53.2156,229.7163,92.711,267.4006,2.7898e-05,1.56e-06,0.0,0 STARLINK-4754,1 53842U 22114AA  23136.52203579  .00000156  00000-0  27898-4 0  9990,2 53842  53.2156 229.7163 0001084  92.7110 267.4006 15.08838352 37759,6917.885,95.438,540.5,539.001,0.0
53842.0,STARLINK-4754,PAYLOAD,2023-05-17 10:47:07,15.08842061,0.0001097,53.2163,225.5527,84.3312,275.7805,6.2774e-05,7.11e-06,0.0,0 STARLINK-4754,1 53842U 22114AA  23137.44939197  .00000711  00000-0  62774-4 0  9993,2 53842  53.2163 225.5527 0001097  84.3312 275.7805 15.08842061 37357,6917.874,95.437,540.498,538.98,0.0
53842.0,STARLINK-4754,PAYLOAD,2023-05-17 12:22:30,15.08847849,0.0001159,53.2161,225.2548,88.0042,272.1083,1.0304e-05,-1.24e-06,0.0,0 STARLINK-4754,1 53842U 22114AA  23137.51563014 -.00000124  00000-0  10304-4 0  9993,2 53842  53.2161 225.2548 0001159  88.0042 272.1083 15.08847849 37904,6917.856,95.437,540.523,538.92,0.0
53842.0,STARLINK-4754,PAYLOAD,2023-05-18 10:37:54,15.08838835,0.0001119,53.2158,221.0913,85.0569,275.0551,2.3084e-05,8e-07,0.0,0 STARLINK-4754,1 53842U 22114AA  23138.44299432  .00000080  00000-0  23084-4 0  9995,2 53842  53.2158 221.0913 0001119  85.0569 275.0551 15.08838835 38040,6917.884,95.438,540.523,538.975,0.0
53842.0,STARLINK-4754,PAYLOAD,2023-05-19 12:04:04,15.08841064,0.0001112,53.216,216.3329,84.9058,275.2061,1.3498e-05,-7.3e-07,0.0,0 STARLINK-4754,1 53842U 22114AA  23139.50283379 -.00000073  00000-0  13498-4 0  9997,2 53842  53.2160 216.3329 0001112  84.9058 275.2061 15.08841064 37668,6917.877,95.437,540.511,538.973,0.0
53842.0,STARLINK-4754,PAYLOAD,2023-05-19 21:36:23,15.08841843,0.0001061,53.2156,214.5496,87.2703,272.8411,4.0197e-05,3.52e-06,0.0,0 STARLINK-4754,1 53842U 22114AA  23139.90027176  .00000352  00000-0  40197-4 0  9997,2 53842  53.2156 214.5496 0001061  87.2703 272.8411 15.08841843 38268,6917.875,95.437,540.474,539.006,0.0
53842.0,STARLINK-4754,PAYLOAD,2023-05-20 13:30:14,15.08850108,0.0001249,53.2174,211.578,71.4691,288.6437,0.00010633,1.405e-05,0.0,0 STARLINK-4754,1 53842U 22114AA  23140.56266579  .00001405  00000-0  10633-3 0  9994,2 53842  53.2174 211.5780 0001249  71.4691 288.6437 15.08850108 37828,6917.849,95.437,540.579,538.85,0.0
53842.0,STARLINK-4754,PAYLOAD,2023-05-20 21:27:10,15.08841157,0.0001226,53.2171,210.0881,90.4984,269.6148,8.1747e-05,1.013e-05,0.0,0 STARLINK-4754,1 53842U 22114AA  23140.89387022  .00001013  00000-0  81747-4 0  9997,2 53842  53.2171 210.0881 0001226  90.4984 269.6148 15.08841157 38410,6917.877,95.437,540.59,538.894,0.0
53842.0,STARLINK-4754,PAYLOAD,2023-05-21 03:48:43,15.08841282,0.0001127,53.2163,208.9013,91.9782,268.1339,4.5066e-05,4.3e-06,0.0,0 STARLINK-4754,1 53842U 22114AA  23141.15883137  .00000430  00000-0  45066-4 0  9991,2 53842  53.2163 208.9013 0001127  91.9782 268.1339 15.08841282 37915,6917.876,95.437,540.521,538.962,0.0
53842.0,STARLINK-4754,PAYLOAD,2023-05-21 13:21:01,15.08844963,0.0001148,53.2163,207.1169,93.077,267.0354,6.1616e-05,6.93e-06,0.0,0 STARLINK-4754,1 53842U 22114AA  23141.55626739  .00000693  00000-0  61616-4 0  9998,2 53842  53.2163 207.1169 0001148  93.0770 267.0354 15.08844963 38512,6917.865,95.437,540.524,538.936,0.0
53842.0,STARLINK-4754,PAYLOAD,2023-05-21 21:17:58,15.08835165,0.0001434,53.2173,205.6265,82.749,277.3666,-4.4696e-05,-9.99e-06,0.0,0 STARLINK-4754,1 53842U 22114AA  23141.88747766 -.00000999  00000-0 -44696-4 0  9998,2 53842  53.2173 205.6265 0001434  82.7490 277.3666 15.08835165 38564,6917.895,95.438,540.752,538.768,0.0
53842.0,STARLINK-4754,PAYLOAD,2023-05-21 22:53:21,15.08834894,0.0001295,53.2148,205.3303,87.0556,273.0585,-4.9633e-05,-1.078e-05,0.0,0 STARLINK-4754,1 53842U 22114AA  23141.95371714 -.00001078  00000-0 -49633-4 0  9997,2 53842  53.2148 205.3303 0001295  87.0556 273.0585 15.08834894 38035,6917.896,95.438,540.657,538.865,0.0
53842.0,STARLINK-4754,PAYLOAD,2023-05-22 13:11:49,15.08836428,0.0001186,53.2151,202.6541,98.3985,261.7142,-7.8253e-05,-1.533e-05,0.0,0 STARLINK-4754,1 53842U 22114AA  23142.54987983 -.00001533  00000-0 -78253-4 0  9990,2 53842  53.2151 202.6541 0001186  98.3985 261.7142 15.08836428 38660,6917.891,95.438,540.577,538.936,0.0
53842.0,STARLINK-4754,PAYLOAD,2023-05-23 03:30:18,15.08830062,0.0001167,53.2148,199.9781,91.1441,268.9684,6.5367e-07,-2.77e-06,0.0,0 STARLINK-4754,1 53842U 22114AA  23143.14604294 -.00000277  00000-0  65367-6 0  9995,2 53842  53.2148 199.9781 0001167  91.1441 268.9684 15.08830062 38216,6917.911,95.438,540.583,538.968,0.0
53842.0,STARLINK-4754,PAYLOAD,2023-05-23 20:59:32,15.08838489,0.0001107,53.2155,196.7084,94.1108,266.001,-1.0688e-05,-4.58e-06,0.0,0 STARLINK-4754,1 53842U 22114AA  23143.87468050 -.00000458  00000-0 -10688-4 0  9999,2 53842  53.2155 196.7084 0001107  94.1108 266.0010 15.08838489 38866,6917.885,95.438,540.516,538.984,0.0
53842.0,STARLINK-4754,PAYLOAD,2023-05-24 03:21:04,15.08836932,0.0001113,53.2153,195.5183,94.9022,265.2097,6.5993e-05,7.63e-06,0.0,0 STARLINK-4754,1 53842U 22114AA  23144.13963988  .00000763  00000-0  65993-4 0  9995,2 53842  53.2153 195.5183 0001113  94.9022 265.2097 15.08836932 38363,6917.89,95.438,540.525,538.985,0.0
53842.0,STARLINK-4754,PAYLOAD,2023-05-24 08:07:14,15.08835161,0.000111,53.2153,194.6264,95.5865,264.5254,0.00014147,1.964e-05,0.0,0 STARLINK-4754,1 53842U 22114AA  23144.33835999  .00001964  00000-0  14147-3 0  9995,2 53842  53.2153 194.6264 0001110  95.5865 264.5254 15.08835161 38935,6917.895,95.438,540.528,538.992,0.0
53842.0,STARLINK-4754,PAYLOAD,2023-05-25 23:51:52,15.08840945,0.000113,53.2154,187.1935,84.8558,275.2563,2.7633e-05,1.52e-06,0.0,0 STARLINK-4754,1 53842U 22114AA  23145.99436065  .00000152  00000-0  27633-4 0  9992,2 53842  53.2154 187.1935 0001130  84.8558 275.2563 15.08840945 38646,6917.878,95.437,540.524,538.961,0.0
53842.0,STARLINK-4754,PAYLOAD,2023-05-26 12:34:57,15.0884029,0.0001127,53.2153,184.8137,87.6912,272.4209,-7.3701e-07,-3e-06,0.0,0 STARLINK-4754,1 53842U 22114AA  23146.52428122 -.00000300  00000-0 -73701-6 0  9993,2 53842  53.2153 184.8137 0001127  87.6912 272.4209 15.08840290 39262,6917.88,95.438,540.524,538.965,0.0
53842.0,STARLINK-4754,PAYLOAD,2023-05-27 09:14:58,15.08839511,0.0001124,53.2152,180.9476,88.0892,272.0229,-4.6866e-06,-3.62e-06,0.0,0 STARLINK-4754,1 53842U 22114AA  23147.38540172 -.00000362  00000-0 -46866-5 0  9997,2 53842  53.2152 180.9476 0001124  88.0892 272.0229 15.08839511 38859,6917.882,95.438,540.524,538.969,0.0
53842.0,STARLINK-4754,PAYLOAD,2023-05-27 18:47:17,15.0883712,0.0001105,53.215,179.1634,85.2605,274.8513,-8.4946e-06,-4.23e-06,0.0,0 STARLINK-4754,1 53842U 22114AA  23147.78284374 -.00000423  00000-0 -84946-5 0  9999,2 53842  53.2150 179.1634 0001105  85.2605 274.8513 15.08837120 39450,6917.889,95.438,540.519,538.99,0.0
53842.0,STARLINK-4754,PAYLOAD,2023-05-28 05:54:59,15.08834978,0.0001117,53.215,177.0821,88.4493,271.6627,3.4365e-05,2.59e-06,0.0,0 STARLINK-4754,1 53842U 22114AA  23148.24652494  .00000259  00000-0  34365-4 0  9997,2 53842  53.2150 177.0821 0001117  88.4493 271.6627 15.08834978 39525,6917.896,95.438,540.533,538.988,0.0
53842.0,STARLINK-4754,PAYLOAD,2023-05-28 07:30:22,15.08835113,0.0001114,53.2151,176.7848,88.3799,271.7321,3.4852e-05,2.67e-06,0.0,0 STARLINK-4754,1 53842U 22114AA  23148.31276503  .00000267  00000-0  34852-4 0  9998,2 53842  53.2151 176.7848 0001114  88.3799 271.7321 15.08835113 39531,6917.895,95.438,540.531,538.99,0.0
53842.0,STARLINK-4754,PAYLOAD,2023-05-29 10:31:55,15.08841338,0.0001091,53.2153,171.73,89.0227,271.0891,6.038e-05,6.73e-06,0.0,0 STARLINK-4754,1 53842U 22114AA  23149.43884185  .00000673  00000-0  60380-4 0  9999,2 53842  53.2153 171.7300 0001091  89.0227 271.0891 15.08841338 39169,6917.876,95.437,540.496,538.987,0.0
53842.0,STARLINK-4754,PAYLOAD,2023-05-30 00:50:24,15.0883669,0.0001141,53.2153,169.0535,97.7629,262.3493,2.148e-05,5.4e-07,0.0,0 STARLINK-4754,1 53842U 22114AA  23150.03500626  .00000054  00000-0  21480-4 0  9993,2 53842  53.2153 169.0535 0001141  97.7629 262.3493 15.08836690 39253,6917.891,95.438,540.545,538.966,0.0
53842.0,STARLINK-4754,PAYLOAD,2023-05-30 08:47:20,15.08834893,0.000114,53.2153,167.5661,99.6693,260.4428,1.0164e-05,-1.26e-06,0.0,0 STARLINK-4754,1 53842U 22114AA  23150.36620850 -.00000126  00000-0  10164-4 0  9999,2 53842  53.2153 167.5661 0001140  99.6693 260.4428 15.08834893 39842,6917.896,95.438,540.55,538.972,0.0
